NORAD_CAT_ID,OBJECT_NAME,OBJECT_TYPE,EPOCH,MEAN_MOTION,ECCENTRICITY,INCLINATION,RA_OF_ASC_NODE,ARG_OF_PERICENTER,MEAN_ANOMALY,BSTAR,MEAN_MOTION_DOT,MEAN_MOTION_DDOT,TLE_LINE0,TLE_LINE1,TLE_LINE2,SEMIMAJOR_AXIS,PERIOD,APOGEE,PERIGEE,DECAYED
51720.0,STARLINK-3526,PAYLOAD,2023-05-04 21:09:43,15.08856065,0.0001184,53.2163,316.9676,95.1508,264.9619,0.00017049,2.428e-05,0.0,0 STARLINK-3526,1 51720U 22016G   23124.88174932  .00002428  00000-0  17049-3 0  9990,2 51720  53.2163 316.9676 0001184  95.1508 264.9619 15.08856065 66448,6917.831,95.437,540.515,538.877,0.0
51720.0,STARLINK-3526,PAYLOAD,2023-05-05 16:14:21,15.08839838,0.0001393,53.2164,313.3996,108.4441,251.6702,8.9632e-05,1.139e-05,0.0,0 STARLINK-3526,1 51720U 22016G   23125.67663789  .00001139  00000-0  89632-4 0  9997,2 51720  53.2164 313.3996 0001393 108.4441 251.6702 15.08839838 67627,6917.881,95.438,540.71,538.782,0.0
51720.0,STARLINK-3526,PAYLOAD,2023-05-05 21:00:30,15.08844487,0.0001055,53.2159,312.5083,82.0789,278.0323,0.00019459,2.811e-05,0.0,0 STARLINK-3526,1 51720U 22016G   23125.87535764  .00002811  00000-0  19459-3 0  9997,2 51720  53.2159 312.5083 0001055  82.0789 278.0323 15.08844487 66599,6917.867,95.437,540.462,539.002,0.0
51720.0,STARLINK-3526,PAYLOAD,2023-05-06 14:29:45,15.08847839,0.000105,53.2159,309.2379,82.5327,277.5784,0.00049383,7.582e-05,0.0,0 STARLINK-3526,1 51720U 22016G   23126.60399845  .00007582  00000-0  49383-3 0  9996,2 51720  53.2159 309.2379 0001050  82.5327 277.5784 15.08847839 66700,6917.856,95.437,540.448,538.995,0.0
51720.0,STARLINK-3526,PAYLOAD,2023-05-06 20:51:17,15.08859746,0.0001003,53.2158,308.0485,83.6616,276.449,0.00081021,0.00012637,0.0,0 STARLINK-3526,1 51720U 22016G   23126.86895469  .00012637  00000-0  81021-3 0  9999,2 51720  53.2158 308.0485 0001003  83.6616 276.4490 15.08859746 67809,6917.82,95.436,540.379,538.991,0.0
51720.0,STARLINK-3526,PAYLOAD,2023-05-07 04:48:13,15.08843518,0.0001195,53.2159,306.562,99.3363,260.7764,0.00022957,3.368e-05,0.0,0 STARLINK-3526,1 51720U 22016G   23127.20015751  .00003368  00000-0  22957-3 0  9990,2 51720  53.2159 306.5620 0001195  99.3363 260.7764 15.08843518 67854,6917.87,95.437,540.561,538.908,0.0
51720.0,STARLINK-3526,PAYLOAD,2023-05-07 19:06:42,15.08834096,0.0001049,53.2154,303.8851,91.7735,268.3377,-1.7319e-05,-5.63e-06,0.0,0 STARLINK-3526,1 51720U 22016G   23127.79632157 -.00000563  00000-0 -17319-4 0  9992,2 51720  53.2154 303.8851 0001049  91.7735 268.3377 15.08834096 67947,6917.898,95.438,540.489,539.038,0.0
51720.0,STARLINK-3526,PAYLOAD,2023-05-08 18:57:28,15.08851477,9.77e-05,53.2156,299.4248,100.1556,259.9546,0.00044454,6.796e-05,0.0,0 STARLINK-3526,1 51720U 22016G   23128.78991859  .00006796  00000-0  44454-3 0  9990,2 51720  53.2156 299.4248 0000977 100.1556 259.9546 15.08851477 67030,6917.845,95.437,540.386,539.034,0.0
51720.0,STARLINK-3526,PAYLOAD,2023-05-09 04:29:47,15.08843027,0.0001049,53.216,297.6366,90.7951,269.3161,0.0001889,2.72e-05,0.0,0 STARLINK-3526,1 51720U 22016G   23129.18736090  .00002720  00000-0  18890-3 0  9997,2 51720  53.2160 297.6366 0001049  90.7951 269.3161 15.08843027 68154,6917.871,95.437,540.462,539.01,0.0
51720.0,STARLINK-3526,PAYLOAD,2023-05-09 06:05:11,15.08844428,0.0001048,53.2158,297.3441,81.2981,278.813,0.00020329,2.949e-05,0.0,0 STARLINK-3526,1 51720U 22016G   23129.25360057  .00002949  00000-0  20329-3 0  9994,2 51720  53.2158 297.3441 0001048  81.2981 278.8130 15.08844428 67100,6917.867,95.437,540.457,539.007,0.0
51720.0,STARLINK-3526,PAYLOAD,2023-05-10 04:20:35,15.08845304,8e-05,53.216,293.1805,87.2155,272.8929,0.0001765,2.523e-05,0.0,0 STARLINK-3526,1 51720U 22016G   23130.18096126  .00002523  00000-0  17650-3 0  9992,2 51720  53.2160 293.1805 0000800  87.2155 272.8929 15.08845304 67244,6917.864,95.437,540.283,539.176,0.0
51720.0,STARLINK-3526,PAYLOAD,2023-05-10 17:03:40,15.0884656,8.36e-05,53.2167,290.8,98.8639,261.2448,0.00014954,2.093e-05,0.0,0 STARLINK-3526,1 51720U 22016G   23130.71088035  .00002093  00000-0  14954-3 0  9997,2 51720  53.2167 290.8000 0000836  98.8639 261.2448 15.08846560 68385,6917.86,95.437,540.304,539.147,0.0
51720.0,STARLINK-3526,PAYLOAD,2023-05-11 04:11:21,15.08847105,8.12e-05,53.2154,288.7196,97.6015,262.5069,0.00021764,3.178e-05,0.0,0 STARLINK-3526,1 51720U 22016G   23131.17455912  .00003178  00000-0  21764-3 0  9992,2 51720  53.2154 288.7196 0000812  97.6015 262.5069 15.08847105 67391,6917.859,95.437,540.285,539.162,0.0
51720.0,STARLINK-3526,PAYLOAD,2023-05-11 16:54:26,15.08869218,0.0001103,53.2156,286.3409,82.9078,277.2039,0.00061949,9.593e-05,0.0,0 STARLINK-3526,1 51720U 22016G   23131.70446963  .00009593  00000-0  61949-3 0  9993,2 51720  53.2156 286.3409 0001103  82.9078 277.2039 15.08869218 68530,6917.791,95.436,540.419,538.893,0.0
51720.0,STARLINK-3526,PAYLOAD,2023-05-12 16:45:13,15.0883916,0.0001018,53.2152,281.8801,97.6553,262.4555,-5.5905e-05,-1.177e-05,0.0,0 STARLINK-3526,1 51720U 22016G   23132.69807752 -.00001177  00000-0 -55905-4 0  9997,2 51720  53.2152 281.8801 0001018  97.6553 262.4555 15.08839160 68686,6917.883,95.438,540.452,539.044,0.0
51720.0,STARLINK-3526,PAYLOAD,2023-05-13 13:25:15,15.08834467,0.0001212,53.2159,278.0149,97.0665,263.0465,-8.2011e-05,-1.593e-05,0.0,0 STARLINK-3526,1 51720U 22016G   23133.55920337 -.00001593  00000-0 -82011-4 0  9998,2 51720  53.2159 278.0149 0001212  97.0665 263.0465 15.08834467 67759,6917.897,95.438,540.601,538.924,0.0
51720.0,STARLINK-3526,PAYLOAD,2023-05-13 16:36:00,15.08843948,0.0001143,53.2151,277.4222,98.0474,262.0648,-0.00013173,-2.384e-05,0.0,0 STARLINK-3526,1 51720U 22016G   23133.69167801 -.00002384  00000-0 -13173-3 0  9993,2 51720  53.2151 277.4222 0001143  98.0474 262.0648 15.08843948 67776,6917.868,95.437,540.524,538.943,0.0
51720.0,STARLINK-3526,PAYLOAD,2023-05-14 02:08:20,15.08836373,0.0001205,53.2162,275.6401,102.7601,257.3526,-0.0001707,-3.003e-05,0.0,0 STARLINK-3526,1 51720U 22016G   23134.08912304 -.00003003  00000-0 -17070-3 0  9992,2 51720  53.2162 275.6401 0001205 102.7601 257.3526 15.08836373 68891,6917.891,95.438,540.59,538.923,0.0
51720.0,STARLINK-3526,PAYLOAD,2023-05-14 13:16:02,15.08828601,0.0001098,53.2155,273.5558,97.9911,262.1206,5.1909e-05,5.38e-06,0.0,0 STARLINK-3526,1 51720U 22016G   23134.55281060  .00000538  00000-0  51909-4 0  9990,2 51720  53.2155 273.5558 0001098  97.9911 262.1206 15.08828601 68964,6917.915,95.438,540.54,539.021,0.0
51720.0,STARLINK-3526,PAYLOAD,2023-05-14 18:02:11,15.08835787,0.00011,53.2168,272.6631,97.9118,262.1999,0.00014949,2.092e-05,0.0,0 STARLINK-3526,1 51720U 22016G   23134.75152700  .00002092  00000-0  14949-3 0  9999,2 51720  53.2168 272.6631 0001100  97.9118 262.1999 15.08835787 67931,6917.893,95.438,540.519,538.997,0.0
51720.0,STARLINK-3526,PAYLOAD,2023-05-15 13:06:50,15.08835783,0.0001094,53.2168,269.0947,94.9806,265.1311,2.5528e-05,1.18e-06,0.0,0 STARLINK-3526,1 51720U 22016G   23135.54641446  .00000118  00000-0  25528-4 0  9990,2 51720  53.2168 269.0947 0001094  94.9806 265.1311 15.08835783 68055,6917.893,95.438,540.515,539.001,0.0
51720.0,STARLINK-3526,PAYLOAD,2023-05-15 16:17:36,15.08837944,0.0001092,53.2171,268.4992,87.9027,272.2091,5.3548e-05,5.64e-06,0.0,0 STARLINK-3526,1 51720U 22016G   23135.67889249  .00000564  00000-0  53548-4 0  9997,2 51720  53.2171 268.4992 0001092  87.9027 272.2091 15.08837944 69132,6917.887,95.438,540.507,538.996,0.0
51720.0,STARLINK-3526,PAYLOAD,2023-05-16 12:57:37,15.08837272,0.0001104,53.2168,264.633,83.4817,276.63,0.00013669,1.888e-05,0.0,0 STARLINK-3526,1 51720U 22016G   23136.54001312  .00001888  00000-0  13669-3 0  9990,2 51720  53.2168 264.6330 0001104  83.4817 276.6300 15.08837272 68206,6917.889,95.438,540.517,538.99,0.0
51720.0,STARLINK-3526,PAYLOAD,2023-05-17 01:40:41,15.08841661,0.000102,53.216,262.2558,90.5365,269.5744,0.00012864,1.76e-05,0.0,0 STARLINK-3526,1 51720U 22016G   23137.06993006  .00001760  00000-0  12864-3 0  9993,2 51720  53.2160 262.2558 0001020  90.5365 269.5744 15.08841661 69344,6917.875,95.437,540.446,539.035,0.0
51720.0,STARLINK-3526,PAYLOAD,2023-05-17 08:02:14,15.0882998,0.0001063,53.2159,261.0661,88.844,271.2674,0.00024836,3.666e-05,0.0,0 STARLINK-3526,1 51720U 22016G   23137.33489413  .00003666  00000-0  24836-3 0  9994,2 51720  53.2159 261.0661 0001063  88.8440 271.2674 15.08829980 69381,6917.911,95.438,540.511,539.041,0.0
51720.0,STARLINK-3526,PAYLOAD,2023-05-17 14:23:47,15.08842454,0.0001041,53.216,259.8765,85.6231,274.488,7.8975e-05,9.69e-06,0.0,0 STARLINK-3526,1 51720U 22016G   23137.59985040  .00000969  00000-0  78975-4 0  9996,2 51720  53.2160 259.8765 0001041  85.6231 274.4880 15.08842454 69422,6917.873,95.437,540.458,539.018,0.0
51720.0,STARLINK-3526,PAYLOAD,2023-05-18 12:39:11,15.08802149,0.0001114,53.2179,255.7152,82.2404,277.8715,0.00046784,7.158e-05,0.0,0 STARLINK-3526,1 51720U 22016G   23138.52722125  .00007158  00000-0  46784-3 0  9992,2 51720  53.2179 255.7152 0001114  82.2404 277.8715 15.08802149 69569,6917.996,95.44,540.632,539.09,0.0
51720.0,STARLINK-3526,PAYLOAD,2023-05-18 17:25:20,15.08841073,0.0001109,53.2163,254.8202,100.0367,260.0751,1.7621e-05,-7e-08,0.0,0 STARLINK-3526,1 51720U 22016G   23138.72593143 -.00000007  00000-0  17621-4 0  9996,2 51720  53.2163 254.8202 0001109 100.0367 260.0751 15.08841073 68538,6917.877,95.437,540.509,538.975,0.0
51720.0,STARLINK-3526,PAYLOAD,2023-05-19 01:22:16,15.08835474,0.0001174,53.2157,253.3321,102.2235,257.8889,1.7289e-05,-1.3e-07,0.0,0 STARLINK-3526,1 51720U 22016G   23139.05713472 -.00000013  00000-0  17289-4 0  9999,2 51720  53.2157 253.3321 0001174 102.2235 257.8889 15.08835474 69644,6917.894,95.438,540.571,538.947,0.0
51720.0,STARLINK-3526,PAYLOAD,2023-05-19 12:29:58,15.08827228,0.0001019,53.2156,251.2511,103.2349,256.8756,0.00023302,3.421e-05,0.0,0 STARLINK-3526,1 51720U 22016G   23139.52081527  .00003421  00000-0  23302-3 0  9997,2 51720  53.2156 251.2511 0001019 103.2349 256.8756 15.08827228 68656,6917.919,95.438,540.489,539.079,0.0
